<xml>
<item>
<COMMENT>GENERATED VIA SPACETRACK.ORG API</COMMENT>
<ORIGINATOR>18 SPCS</ORIGINATOR>
<NORAD_CAT_ID>56485</NORAD_CAT_ID>
<OBJECT_NAME>STARLINK-6210</OBJECT_NAME>
<OBJECT_TYPE>PAYLOAD</OBJECT_TYPE>
<CLASSIFICATION_TYPE>U</CLASSIFICATION_TYPE>
<INTLDES>23064AP</INTLDES>
<EPOCH>2023-10-18 09:38:40</EPOCH>
<EPOCH_MICROSECONDS>833600</EPOCH_MICROSECONDS>
<MEAN_MOTION>14.98332089</MEAN_MOTION>
<ECCENTRICITY>0.000287</ECCENTRICITY>
<INCLINATION>70</INCLINATION>
<RA_OF_ASC_NODE>166.1443</RA_OF_ASC_NODE>
<ARG_OF_PERICENTER>269.1752</ARG_OF_PERICENTER>
<MEAN_ANOMALY>90.9078</MEAN_ANOMALY>
<EPHEMERIS_TYPE>0</EPHEMERIS_TYPE>
<ELEMENT_SET_NO>999</ELEMENT_SET_NO>
<REV_AT_EPOCH>2529</REV_AT_EPOCH>
<BSTAR>-0.000039327</BSTAR>
<MEAN_MOTION_DOT>-0.00000562</MEAN_MOTION_DOT>
<MEAN_MOTION_DDOT>0</MEAN_MOTION_DDOT>
<FILE>4040032</FILE>
<TLE_LINE0>0 STARLINK-6210</TLE_LINE0>
<TLE_LINE1>1 56485U 23064AP 23291.40186150 -.00000562 00000-0 -39327-4 0 9998</TLE_LINE1>
<TLE_LINE2>2 56485 70.0000 166.1443 0002870 269.1752 90.9078 14.98332089 25299</TLE_LINE2>
<OBJECT_ID>2023-064AP</OBJECT_ID>
<OBJECT_NUMBER>56485</OBJECT_NUMBER>
<SEMIMAJOR_AXIS>6950.186</SEMIMAJOR_AXIS>
<PERIOD>96.107</PERIOD>
<APOGEE>574.046</APOGEE>
<PERIGEE>570.057</PERIGEE>
<DECAYED>0</DECAYED>
</item>
<item>
<COMMENT>GENERATED VIA SPACETRACK.ORG API</COMMENT>
<ORIGINATOR>18 SPCS</ORIGINATOR>
<NORAD_CAT_ID>55749</NORAD_CAT_ID>
<OBJECT_NAME>STARLINK-5560</OBJECT_NAME>
<OBJECT_TYPE>PAYLOAD</OBJECT_TYPE>
<CLASSIFICATION_TYPE>U</CLASSIFICATION_TYPE>
<INTLDES>23028J</INTLDES>
<EPOCH>2023-10-18 09:58:57</EPOCH>
<EPOCH_MICROSECONDS>520992</EPOCH_MICROSECONDS>
<MEAN_MOTION>14.98333151</MEAN_MOTION>
<ECCENTRICITY>0.0002835</ECCENTRICITY>
<INCLINATION>70</INCLINATION>
<RA_OF_ASC_NODE>286.2282</RA_OF_ASC_NODE>
<ARG_OF_PERICENTER>268.0425</ARG_OF_PERICENTER>
<MEAN_ANOMALY>92.0409</MEAN_ANOMALY>
<EPHEMERIS_TYPE>0</EPHEMERIS_TYPE>
<ELEMENT_SET_NO>999</ELEMENT_SET_NO>
<REV_AT_EPOCH>3523</REV_AT_EPOCH>
<BSTAR>0.000064522</BSTAR>
<MEAN_MOTION_DOT>0.00000677</MEAN_MOTION_DOT>
<MEAN_MOTION_DDOT>0</MEAN_MOTION_DDOT>
<FILE>4039884</FILE>
<TLE_LINE0>0 STARLINK-5560</TLE_LINE0>
<TLE_LINE1>1 55749U 23028J 23291.41594353 .00000677 00000-0 64522-4 0 9999</TLE_LINE1>
<TLE_LINE2>2 55749 70.0000 286.2282 0002835 268.0425 92.0409 14.98333151 35239</TLE_LINE2>
<OBJECT_ID>2023-028J</OBJECT_ID>
<OBJECT_NUMBER>55749</OBJECT_NUMBER>
<SEMIMAJOR_AXIS>6950.183</SEMIMAJOR_AXIS>
<PERIOD>96.107</PERIOD>
<APOGEE>574.019</APOGEE>
<PERIGEE>570.078</PERIGEE>
<DECAYED>0</DECAYED>
</item>
<item>
<COMMENT>GENERATED VIA SPACETRACK.ORG API</COMMENT>
<ORIGINATOR>18 SPCS</ORIGINATOR>
<NORAD_CAT_ID>56803</NORAD_CAT_ID>
<OBJECT_NAME>STARLINK-6029</OBJECT_NAME>
<OBJECT_TYPE>PAYLOAD</OBJECT_TYPE>
<CLASSIFICATION_TYPE>U</CLASSIFICATION_TYPE>
<INTLDES>23078AN</INTLDES>
<EPOCH>2023-10-18 10:06:22</EPOCH>
<EPOCH_MICROSECONDS>54176</EPOCH_MICROSECONDS>
<MEAN_MOTION>14.9850331</MEAN_MOTION>
<ECCENTRICITY>0.0003018</ECCENTRICITY>
<INCLINATION>70</INCLINATION>
<RA_OF_ASC_NODE>26.2507</RA_OF_ASC_NODE>
<ARG_OF_PERICENTER>261.0332</ARG_OF_PERICENTER>
<MEAN_ANOMALY>99.0485</MEAN_ANOMALY>
<EPHEMERIS_TYPE>0</EPHEMERIS_TYPE>
<ELEMENT_SET_NO>999</ELEMENT_SET_NO>
<REV_AT_EPOCH>2213</REV_AT_EPOCH>
<BSTAR>-0.0028233</BSTAR>
<MEAN_MOTION_DOT>-0.00033769</MEAN_MOTION_DOT>
<MEAN_MOTION_DDOT>0</MEAN_MOTION_DDOT>
<FILE>4039666</FILE>
<TLE_LINE0>0 STARLINK-6029</TLE_LINE0>
<TLE_LINE1>1 56803U 23078AN 23291.42108859 -.00033769 00000-0 -28233-2 0 9996</TLE_LINE1>
<TLE_LINE2>2 56803 70.0000 26.2507 0003018 261.0332 99.0485 14.98503310 22139</TLE_LINE2>
<OBJECT_ID>2023-078AN</OBJECT_ID>
<OBJECT_NUMBER>56803</OBJECT_NUMBER>
<SEMIMAJOR_AXIS>6949.657</SEMIMAJOR_AXIS>
<PERIOD>96.096</PERIOD>
<APOGEE>573.619</APOGEE>
<PERIGEE>569.425</PERIGEE>
<DECAYED>0</DECAYED>
</item>
<item>
<COMMENT>GENERATED VIA SPACETRACK.ORG API</COMMENT>
<ORIGINATOR>18 SPCS</ORIGINATOR>
<NORAD_CAT_ID>55397</NORAD_CAT_ID>
<OBJECT_NAME>STARLINK-5224</OBJECT_NAME>
<OBJECT_TYPE>PAYLOAD</OBJECT_TYPE>
<CLASSIFICATION_TYPE>U</CLASSIFICATION_TYPE>
<INTLDES>23014G</INTLDES>
<EPOCH>2023-10-18 11:13:53</EPOCH>
<EPOCH_MICROSECONDS>97024</EPOCH_MICROSECONDS>
<MEAN_MOTION>14.99271993</MEAN_MOTION>
<ECCENTRICITY>0.0003544</ECCENTRICITY>
<INCLINATION>70</INCLINATION>
<RA_OF_ASC_NODE>86.3365</RA_OF_ASC_NODE>
<ARG_OF_PERICENTER>264.9163</ARG_OF_PERICENTER>
<MEAN_ANOMALY>95.1592</MEAN_ANOMALY>
<EPHEMERIS_TYPE>0</EPHEMERIS_TYPE>
<ELEMENT_SET_NO>999</ELEMENT_SET_NO>
<REV_AT_EPOCH>4080</REV_AT_EPOCH>
<BSTAR>-0.0002971</BSTAR>
<MEAN_MOTION_DOT>-0.00003725</MEAN_MOTION_DOT>
<MEAN_MOTION_DDOT>0</MEAN_MOTION_DDOT>
<FILE>4039743</FILE>
<TLE_LINE0>0 STARLINK-5224</TLE_LINE0>
<TLE_LINE1>1 55397U 23014G 23291.46797566 -.00003725 00000-0 -29710-3 0 9997</TLE_LINE1>
<TLE_LINE2>2 55397 70.0000 86.3365 0003544 264.9163 95.1592 14.99271993 40803</TLE_LINE2>
<OBJECT_ID>2023-014G</OBJECT_ID>
<OBJECT_NUMBER>55397</OBJECT_NUMBER>
<SEMIMAJOR_AXIS>6947.281</SEMIMAJOR_AXIS>
<PERIOD>96.047</PERIOD>
<APOGEE>571.608</APOGEE>
<PERIGEE>566.684</PERIGEE>
<DECAYED>0</DECAYED>
</item>
<item>
<COMMENT>GENERATED VIA SPACETRACK.ORG API</COMMENT>
<ORIGINATOR>18 SPCS</ORIGINATOR>
<NORAD_CAT_ID>55271</NORAD_CAT_ID>
<OBJECT_NAME>STARLINK-5306</OBJECT_NAME>
<OBJECT_TYPE>PAYLOAD</OBJECT_TYPE>
<CLASSIFICATION_TYPE>U</CLASSIFICATION_TYPE>
<INTLDES>23010C</INTLDES>
<EPOCH>2023-10-18 11:19:30</EPOCH>
<EPOCH_MICROSECONDS>724896</EPOCH_MICROSECONDS>
<MEAN_MOTION>14.98327847</MEAN_MOTION>
<ECCENTRICITY>0.0002938</ECCENTRICITY>
<INCLINATION>70</INCLINATION>
<RA_OF_ASC_NODE>86.2591</RA_OF_ASC_NODE>
<ARG_OF_PERICENTER>273.5949</ARG_OF_PERICENTER>
<MEAN_ANOMALY>86.4874</MEAN_ANOMALY>
<EPHEMERIS_TYPE>0</EPHEMERIS_TYPE>
<ELEMENT_SET_NO>999</ELEMENT_SET_NO>
<REV_AT_EPOCH>4167</REV_AT_EPOCH>
<BSTAR>-0.000012611</BSTAR>
<MEAN_MOTION_DOT>-0.00000243</MEAN_MOTION_DOT>
<MEAN_MOTION_DDOT>0</MEAN_MOTION_DDOT>
<FILE>4040119</FILE>
<TLE_LINE0>0 STARLINK-5306</TLE_LINE0>
<TLE_LINE1>1 55271U 23010C 23291.47188339 -.00000243 00000-0 -12611-4 0 9992</TLE_LINE1>
<TLE_LINE2>2 55271 70.0000 86.2591 0002938 273.5949 86.4874 14.98327847 41679</TLE_LINE2>
<OBJECT_ID>2023-010C</OBJECT_ID>
<OBJECT_NUMBER>55271</OBJECT_NUMBER>
<SEMIMAJOR_AXIS>6950.200</SEMIMAJOR_AXIS>
<PERIOD>96.107</PERIOD>
<APOGEE>574.107</APOGEE>
<PERIGEE>570.023</PERIGEE>
<DECAYED>0</DECAYED>
</item>
<item>
<COMMENT>GENERATED VIA SPACETRACK.ORG API</COMMENT>
<ORIGINATOR>18 SPCS</ORIGINATOR>
<NORAD_CAT_ID>55298</NORAD_CAT_ID>
<OBJECT_NAME>STARLINK-5272</OBJECT_NAME>
<OBJECT_TYPE>PAYLOAD</OBJECT_TYPE>
<CLASSIFICATION_TYPE>U</CLASSIFICATION_TYPE>
<INTLDES>23010AF</INTLDES>
<EPOCH>2023-10-18 11:25:09</EPOCH>
<EPOCH_MICROSECONDS>843168</EPOCH_MICROSECONDS>
<MEAN_MOTION>14.98329185</MEAN_MOTION>
<ECCENTRICITY>0.0002948</ECCENTRICITY>
<INCLINATION>70</INCLINATION>
<RA_OF_ASC_NODE>65.9977</RA_OF_ASC_NODE>
<ARG_OF_PERICENTER>271.0012</ARG_OF_PERICENTER>
<MEAN_ANOMALY>89.0809</MEAN_ANOMALY>
<EPHEMERIS_TYPE>0</EPHEMERIS_TYPE>
<ELEMENT_SET_NO>999</ELEMENT_SET_NO>
<REV_AT_EPOCH>4216</REV_AT_EPOCH>
<BSTAR>-0.000032972</BSTAR>
<MEAN_MOTION_DOT>-0.00000486</MEAN_MOTION_DOT>
<MEAN_MOTION_DDOT>0</MEAN_MOTION_DDOT>
<FILE>4040119</FILE>
<TLE_LINE0>0 STARLINK-5272</TLE_LINE0>
<TLE_LINE1>1 55298U 23010AF 23291.47580837 -.00000486 00000-0 -32972-4 0 9991</TLE_LINE1>
<TLE_LINE2>2 55298 70.0000 65.9977 0002948 271.0012 89.0809 14.98329185 42164</TLE_LINE2>
<OBJECT_ID>2023-010AF</OBJECT_ID>
<OBJECT_NUMBER>55298</OBJECT_NUMBER>
<SEMIMAJOR_AXIS>6950.195</SEMIMAJOR_AXIS>
<PERIOD>96.107</PERIOD>
<APOGEE>574.109</APOGEE>
<PERIGEE>570.011</PERIGEE>
<DECAYED>0</DECAYED>
</item>
<item>
<COMMENT>GENERATED VIA SPACETRACK.ORG API</COMMENT>
<ORIGINATOR>18 SPCS</ORIGINATOR>
<NORAD_CAT_ID>56803</NORAD_CAT_ID>
<OBJECT_NAME>STARLINK-6029</OBJECT_NAME>
<OBJECT_TYPE>PAYLOAD</OBJECT_TYPE>
<CLASSIFICATION_TYPE>U</CLASSIFICATION_TYPE>
<INTLDES>23078AN</INTLDES>
<EPOCH>2023-10-18 13:18:39</EPOCH>
<EPOCH_MICROSECONDS>18528</EPOCH_MICROSECONDS>
<MEAN_MOTION>14.9838653</MEAN_MOTION>
<ECCENTRICITY>0.0003086</ECCENTRICITY>
<INCLINATION>70</INCLINATION>
<RA_OF_ASC_NODE>25.9145</RA_OF_ASC_NODE>
<ARG_OF_PERICENTER>270.6803</ARG_OF_PERICENTER>
<MEAN_ANOMALY>89.4002</MEAN_ANOMALY>
<EPHEMERIS_TYPE>0</EPHEMERIS_TYPE>
<ELEMENT_SET_NO>999</ELEMENT_SET_NO>
<REV_AT_EPOCH>2215</REV_AT_EPOCH>
<BSTAR>-0.00085596</BSTAR>
<MEAN_MOTION_DOT>-0.00010306</MEAN_MOTION_DOT>
<MEAN_MOTION_DDOT>0</MEAN_MOTION_DDOT>
<FILE>4040227</FILE>
<TLE_LINE0>0 STARLINK-6029</TLE_LINE0>
<TLE_LINE1>1 56803U 23078AN 23291.55461827 -.00010306 00000-0 -85596-3 0 9995</TLE_LINE1>
<TLE_LINE2>2 56803 70.0000 25.9145 0003086 270.6803 89.4002 14.98386530 22150</TLE_LINE2>
<OBJECT_ID>2023-078AN</OBJECT_ID>
<OBJECT_NUMBER>56803</OBJECT_NUMBER>
<SEMIMAJOR_AXIS>6950.018</SEMIMAJOR_AXIS>
<PERIOD>96.103</PERIOD>
<APOGEE>574.028</APOGEE>
<PERIGEE>569.738</PERIGEE>
<DECAYED>0</DECAYED>
</item>

</xml>
